{
  "type": "FeatureCollection",
  "features": [
    {
      "type": "Feature",
      "properties": {
        "norad_id": 43603,
        "name": "BEIDOU-3 M11 (C25)",
        "group": "beidou",
        "lat": 17.582467619894764,
        "lon": -5.630525881988378,
        "alt_km": 21534.53479825709,
        "timestamp": "2025-12-04T21:36:16.138375+00:00",
        "meta_object_name": "BEIDOU-3 M11 (C25)",
        "meta_object_id": "2018-067B",
        "meta_epoch": "2025-12-04T03:03:44.195904",
        "meta_mean_motion": 1.86227126,
        "meta_eccentricity": 0.00055716,
        "meta_inclination": 54.1804,
        "meta_ra_of_asc_node": 187.6197,
        "meta_arg_of_pericenter": 36.31,
        "meta_mean_anomaly": 323.8191,
        "meta_ephemeris_type": 0,
        "meta_classification_type": "U",
        "meta_norad_cat_id": 43603,
        "meta_element_set_no": 999,
        "meta_rev_at_epoch": 4951,
        "meta_bstar": 0,
        "meta_mean_motion_dot": 1.09e-06,
        "meta_mean_motion_ddot": 0,
        "tle_line1": "1 43603U 18067B   25338.12759486  .00000109  00000+0  00000+0 0  9999",
        "tle_line2": "2 43603  54.1804 187.6197 0005571  36.3100 323.8191  1.86227126 49511"
      },
      "geometry": {
        "type": "Point",
        "coordinates": [
          -5.630525881988378,
          17.582467619894764
        ]
      }
    },
    {
      "type": "Feature",
      "properties": {
        "norad_id": 43622,
        "name": "BEIDOU-3 M13 (C32)",
        "group": "beidou",
        "lat": -5.889019649423275,
        "lon": -106.99710276684715,
        "alt_km": 21534.979406760118,
        "timestamp": "2025-12-04T21:36:16.138387+00:00",
        "meta_object_name": "BEIDOU-3 M13 (C32)",
        "meta_object_id": "2018-072A",
        "meta_epoch": "2025-12-03T13:07:53.541408",
        "meta_mean_motion": 1.86230692,
        "meta_eccentricity": 0.00056735,
        "meta_inclination": 56.4512,
        "meta_ra_of_asc_node": 69.1249,
        "meta_arg_of_pericenter": 298.6305,
        "meta_mean_anomaly": 61.3164,
        "meta_ephemeris_type": 0,
        "meta_classification_type": "U",
        "meta_norad_cat_id": 43622,
        "meta_element_set_no": 999,
        "meta_rev_at_epoch": 4901,
        "meta_bstar": 0,
        "meta_mean_motion_dot": -5e-07,
        "meta_mean_motion_ddot": 0,
        "tle_line1": "1 43622U 18072A   25337.54714747 -.00000050  00000+0  00000+0 0  9998",
        "tle_line2": "2 43622  56.4512  69.1249 0005673 298.6305  61.3164  1.86230692 49019"
      },
      "geometry": {
        "type": "Point",
        "coordinates": [
          -106.99710276684715,
          -5.889019649423275
        ]
      }
    },
    {
      "type": "Feature",
      "properties": {
        "norad_id": 43623,
        "name": "BEIDOU-3 M14 (C33)",
        "group": "beidou",
        "lat": -55.782119258690116,
        "lon": -7.843361170622004,
        "alt_km": 21529.60784403603,
        "timestamp": "2025-12-04T21:36:16.138398+00:00",
        "meta_object_name": "BEIDOU-3 M14 (C33)",
        "meta_object_id": "2018-072B",
        "meta_epoch": "2025-12-01T19:14:30.937344",
        "meta_mean_motion": 1.86230707,
        "meta_eccentricity": 0.00030488,
        "meta_inclination": 56.4513,
        "meta_ra_of_asc_node": 69.1766,
        "meta_arg_of_pericenter": 335.7773,
        "meta_mean_anomaly": 24.2115,
        "meta_ephemeris_type": 0,
        "meta_classification_type": "U",
        "meta_norad_cat_id": 43623,
        "meta_element_set_no": 999,
        "meta_rev_at_epoch": 4897,
        "meta_bstar": 0,
        "meta_mean_motion_dot": -4.3e-07,
        "meta_mean_motion_ddot": 0,
        "tle_line1": "1 43623U 18072B   25335.80174696 -.00000043  00000+0  00000+0 0  9991",
        "tle_line2": "2 43623  56.4513  69.1766 0003048 335.7773  24.2115  1.86230707 48976"
      },
      "geometry": {
        "type": "Point",
        "coordinates": [
          -7.843361170622004,
          -55.782119258690116
        ]
      }
    },
    {
      "type": "Feature",
      "properties": {
        "norad_id": 43647,
        "name": "BEIDOU-3 M16 (C35)",
        "group": "beidou",
        "lat": 6.845156435391322,
        "lon": 121.81756701252274,
        "alt_km": 21544.608343555115,
        "timestamp": "2025-12-04T21:36:16.138409+00:00",
        "meta_object_name": "BEIDOU-3 M16 (C35)",
        "meta_object_id": "2018-078A",
        "meta_epoch": "2025-12-03T00:48:25.625088",
        "meta_mean_motion": 1.86232114,
        "meta_eccentricity": 0.00069753,
        "meta_inclination": 54.271,
        "meta_ra_of_asc_node": 306.8606,
        "meta_arg_of_pericenter": 18.45,
        "meta_mean_anomaly": 341.5609,
        "meta_ephemeris_type": 0,
        "meta_classification_type": "U",
        "meta_norad_cat_id": 43647,
        "meta_element_set_no": 999,
        "meta_rev_at_epoch": 4850,
        "meta_bstar": 0,
        "meta_mean_motion_dot": -6.5e-07,
        "meta_mean_motion_ddot": 0,
        "tle_line1": "1 43647U 18078A   25337.03362992 -.00000065  00000+0  00000+0 0  9992",
        "tle_line2": "2 43647  54.2710 306.8606 0006975  18.4500 341.5609  1.86232114 48502"
      },
      "geometry": {
        "type": "Point",
        "coordinates": [
          121.81756701252274,
          6.845156435391322
        ]
      }
    },
    {
      "type": "Feature",
      "properties": {
        "norad_id": 43648,
        "name": "BEIDOU-3 M15 (C34)",
        "group": "beidou",
        "lat": 53.94614374662715,
        "lon": 28.063129781399404,
        "alt_km": 21517.89128547197,
        "timestamp": "2025-12-04T21:36:16.138421+00:00",
        "meta_object_name": "BEIDOU-3 M15 (C34)",
        "meta_object_id": "2018-078B",
        "meta_epoch": "2025-12-01T00:21:40.976640",
        "meta_mean_motion": 1.86232,
        "meta_eccentricity": 0.0003569,
        "meta_inclination": 54.2686,
        "meta_ra_of_asc_node": 306.9322,
        "meta_arg_of_pericenter": 17.0419,
        "meta_mean_anomaly": 342.9634,
        "meta_ephemeris_type": 0,
        "meta_classification_type": "U",
        "meta_norad_cat_id": 43648,
        "meta_element_set_no": 999,
        "meta_rev_at_epoch": 4848,
        "meta_bstar": 0,
        "meta_mean_motion_dot": -5.6e-07,
        "meta_mean_motion_ddot": 0,
        "tle_line1": "1 43648U 18078B   25335.01505760 -.00000056  00000+0  00000+0 0  9991",
        "tle_line2": "2 43648  54.2686 306.9322 0003569  17.0419 342.9634  1.86232000 48485"
      },
      "geometry": {
        "type": "Point",
        "coordinates": [
          28.063129781399404,
          53.94614374662715
        ]
      }
    },
    {
      "type": "Feature",
      "properties": {
        "norad_id": 43683,
        "name": "BEIDOU-3 G1 (C59)",
        "group": "beidou",
        "lat": 2.484056201239645,
        "lon": 178.05702256209597,
        "alt_km": 35777.15379805731,
        "timestamp": "2025-12-04T21:36:16.138433+00:00",
        "meta_object_name": "BEIDOU-3 G1 (C59)",
        "meta_object_id": "2018-085A",
        "meta_epoch": "2025-12-04T14:23:30.784704",
        "meta_mean_motion": 1.0027323,
        "meta_eccentricity": 0.00019941,
        "meta_inclination": 2.5859,
        "meta_ra_of_asc_node": 103.2073,
        "meta_arg_of_pericenter": 64.74,
        "meta_mean_anomaly": 261.6483,
        "meta_ephemeris_type": 0,
        "meta_classification_type": "U",
        "meta_norad_cat_id": 43683,
        "meta_element_set_no": 999,
        "meta_rev_at_epoch": 2610,
        "meta_bstar": 0,
        "meta_mean_motion_dot": -2.63e-06,
        "meta_mean_motion_ddot": 0,
        "tle_line1": "1 43683U 18085A   25338.59966186 -.00000263  00000+0  00000+0 0  9997",
        "tle_line2": "2 43683   2.5859 103.2073 0001994  64.7400 261.6483  1.00273230 26102"
      },
      "geometry": {
        "type": "Point",
        "coordinates": [
          178.05702256209597,
          2.484056201239645
        ]
      }
    },
    {
      "type": "Feature",
      "properties": {
        "norad_id": 43706,
        "name": "BEIDOU-3 M17 (C36)",
        "group": "beidou",
        "lat": -17.246145985317472,
        "lon": 175.93545211709466,
        "alt_km": 21515.768758556093,
        "timestamp": "2025-12-04T21:36:16.138444+00:00",
        "meta_object_name": "BEIDOU-3 M17 (C36)",
        "meta_object_id": "2018-093A",
        "meta_epoch": "2025-12-03T14:10:37.280064",
        "meta_mean_motion": 1.86228161,
        "meta_eccentricity": 0.00063465,
        "meta_inclination": 54.1727,
        "meta_ra_of_asc_node": 188.9327,
        "meta_arg_of_pericenter": 306.3477,
        "meta_mean_anomaly": 234.3147,
        "meta_ephemeris_type": 0,
        "meta_classification_type": "U",
        "meta_norad_cat_id": 43706,
        "meta_element_set_no": 999,
        "meta_rev_at_epoch": 4789,
        "meta_bstar": 0,
        "meta_mean_motion_dot": 1.14e-06,
        "meta_mean_motion_ddot": 0,
        "tle_line1": "1 43706U 18093A   25337.59070926  .00000114  00000+0  00000+0 0  9993",
        "tle_line2": "2 43706  54.1727 188.9327 0006346 306.3477 234.3147  1.86228161 47892"
      },
      "geometry": {
        "type": "Point",
        "coordinates": [
          175.93545211709466,
          -17.246145985317472
        ]
      }
    }
  ]
}